{
"type": "FeatureCollection",
"name": "S21",
"crs": { "type": "name", "properties": { "name": "urn:ogc:def:crs:EPSG::28992" } },
"features": [
{ "type": "Feature", "properties": { "layer": "S21" }, "geometry": { "type": "Polygon", "coordinates": [ [ [ 98136.459386000002269, 496230.010557 ], [ 98135.528615000002901, 496230.011116 ], [ 98134.601928000003682, 496230.098213 ], [ 98133.687353000001167, 496230.271091 ], [ 98132.792814, 496230.528255000011995 ], [ 98131.926059000004898, 496230.867474999977276 ], [ 98131.094599000003655, 496231.285814 ], [ 97597.094599000003655, 496531.885813999979291 ], [ 97596.30181000000448, 496532.382297999982256 ], [ 97595.558881000004476, 496532.950687 ], [ 97594.872313, 496533.586009000020567 ], [ 97594.248112000001129, 496534.282704000012018 ], [ 96676.548112000004039, 497660.382703999988735 ], [ 96675.996155999993789, 497661.12809000001289 ], [ 96675.515633999995771, 497661.92141 ], [ 96675.11068100000557, 497662.755837999982759 ], [ 96674.78477899999416, 497663.624195999989752 ], [ 96674.540733000001637, 497664.51901300001191 ], [ 96674.380640999996103, 497665.432593 ], [ 96462.280641000004834, 499325.432593 ], [ 96462.204178, 499326.41096299997298 ], [ 96462.223979999995208, 499327.39211700001033 ], [ 98148.054342999996152, 513941.041108999983408 ], [ 98148.204280999998446, 513942.010941000015009 ], [ 98148.448556000003009, 513942.961406000016723 ], [ 98148.784818, 513943.883351000025868 ], [ 104711.814959, 527694.954113999963738 ], [ 104712.246758, 527695.835365999955684 ], [ 104712.762856, 527696.670049999956973 ], [ 104713.358283, 527697.450128 ], [ 104714.027303, 527698.168088000034913 ], [ 104714.763474, 527698.817016000044532 ], [ 104715.559706, 527699.390661000041291 ], [ 104716.408331, 527699.8835 ], [ 108785.002387, 530014.661632 ], [ 108785.286033, 530014.819213 ], [ 108785.87544, 530015.109775000018999 ], [ 108786.173166, 530015.238795000012033 ], [ 108786.788215, 530015.470187 ], [ 108787.097153, 530015.569402999943122 ], [ 108787.731922, 530015.739395000040531 ], [ 108788.049097, 530015.807853 ], [ 108788.697471, 530015.914807999972254 ], [ 108789.019829, 530015.951847000047565 ], [ 108789.675564, 530015.994735999964178 ], [ 108790.0, 530016.0 ], [ 109762.0, 530016.0 ], [ 113367.096503, 530002.999533999944106 ], [ 115543.096503, 529981.999533999944106 ], [ 115543.980171, 529981.951847000047565 ], [ 115544.076164, 529981.941925000050105 ], [ 115544.950903, 529981.807853 ], [ 115545.045461, 529981.788568999967538 ], [ 115545.902847, 529981.569402999943122 ], [ 115545.995059, 529981.540944 ], [ 115546.826834, 529981.238795000012033 ], [ 115546.915813, 529981.201435000053607 ], [ 115547.713967, 529980.819213 ], [ 115547.798856, 529980.773310999968089 ], [ 115548.555702, 529980.314695999957621 ], [ 115548.635683, 529980.260694999946281 ], [ 115549.343933, 529979.730104999965988 ], [ 115549.418235, 529979.668523999978788 ], [ 115550.071068, 529979.071068000048399 ], [ 115550.138976, 529979.002500999951735 ], [ 115550.730105, 529978.343933 ], [ 115550.790965, 529978.269040000042878 ], [ 115551.314696, 529977.555702000041492 ], [ 115551.367923, 529977.475204000016674 ], [ 115551.819213, 529976.713967000017874 ], [ 115551.864293, 529976.62864 ], [ 115552.238795, 529975.826833999948576 ], [ 115552.275295, 529975.737499000038952 ], [ 115552.569403, 529974.902847000048496 ], [ 115552.596971, 529974.810364000033587 ], [ 115552.807853, 529973.950902999960817 ], [ 115552.826223, 529973.856164 ], [ 115552.951847, 529972.980171 ], [ 115552.960843, 529972.884088000049815 ], [ 115553.0, 529972.0 ], [ 115565.989793, 522491.548288 ], [ 115548.999926, 520281.038586999988183 ], [ 115548.985261, 520280.457262000010815 ], [ 115548.955555, 520280.05823700001929 ], [ 115548.883981, 520279.481148 ], [ 115548.815308, 520279.086957000021357 ], [ 115548.687514, 520278.519663000013679 ], [ 115548.580533, 520278.13410099997418 ], [ 108928.625783, 496784.289962999988347 ], [ 108928.313802, 496783.359521 ], [ 108927.912124, 496782.464137999981176 ], [ 108927.424618, 496781.612438999989536 ], [ 108926.855978, 496780.812624000012875 ], [ 108926.21168, 496780.072397999989334 ], [ 108925.49793, 496779.398888 ], [ 108924.721602, 496778.798581000010017 ], [ 108923.890171, 496778.277257999987341 ], [ 108923.011645, 496777.839939999976195 ], [ 108922.094485, 496777.490838000026997 ], [ 108921.147523, 496777.233315000019502 ], [ 108920.17988, 496777.069850000028964 ], [ 108919.200873, 496777.002018 ], [ 107356.980171, 496692.048153000010643 ], [ 101773.255391, 496405.003261999983806 ], [ 98136.459386000002269, 496230.010557 ] ] ] } }
]
}
