{
"type": "FeatureCollection",
"name": "TS21A",
"crs": { "type": "name", "properties": { "name": "urn:ogc:def:crs:EPSG::28992" } },
"xy_coordinate_resolution": 0.1,
"features": [
{ "type": "Feature", "properties": { "value": -20.0 }, "geometry": { "type": "LineString", "coordinates": [ [ 105164.0, 529968.0 ], [ 106352.0, 529968.0 ], [ 108664.0, 529978.0 ], [ 109146.0, 529976.0 ], [ 110752.0, 529984.0 ], [ 110553.0, 529542.0 ], [ 110352.0, 529000.0 ], [ 110155.0, 528575.0 ], [ 109969.0, 528070.0 ], [ 109782.0, 527609.0 ], [ 109625.0, 527053.0 ], [ 109379.0, 525828.0 ], [ 109244.0, 525147.0 ], [ 109139.0, 524675.0 ], [ 108915.0, 524353.0 ], [ 108678.0, 524207.0 ], [ 108486.0, 524168.0 ], [ 108205.0, 524234.0 ], [ 107973.0, 524344.0 ], [ 107637.0, 524372.0 ], [ 107425.0, 524342.0 ], [ 107187.0, 524352.0 ], [ 106904.0, 524337.0 ], [ 106548.0, 524246.0 ], [ 106234.0, 524181.0 ], [ 105913.0, 524194.0 ], [ 105693.0, 524229.0 ], [ 105484.0, 524243.0 ], [ 105240.0, 524183.0 ], [ 105112.0, 523998.0 ], [ 105170.0, 523791.0 ], [ 105351.0, 523646.0 ], [ 105396.0, 523502.0 ], [ 105232.0, 523325.0 ], [ 104904.0, 523209.0 ], [ 104622.0, 522946.0 ], [ 104380.0, 522639.0 ], [ 104070.0, 522357.0 ], [ 104144.0, 522997.0 ], [ 104256.0, 524004.0 ], [ 104292.0, 524520.0 ], [ 104349.0, 525146.0 ], [ 104388.0, 525661.0 ], [ 104416.0, 526142.0 ], [ 104482.0, 526611.0 ], [ 104577.0, 527018.0 ], [ 104698.0, 527688.0 ], [ 104803.0, 528175.0 ], [ 105115.0, 529673.0 ], [ 105164.0, 529968.0 ] ] } },
{ "type": "Feature", "properties": { "value": -25.0 }, "geometry": { "type": "LineString", "coordinates": [ [ 105487.0, 526525.0 ], [ 105437.0, 526380.0 ], [ 105545.0, 526025.0 ], [ 105635.0, 525552.0 ], [ 105765.0, 525163.0 ], [ 105888.0, 524668.0 ], [ 106159.0, 524282.0 ], [ 106428.0, 524280.0 ], [ 106484.0, 524405.0 ], [ 106453.0, 524647.0 ], [ 106411.0, 524937.0 ], [ 106452.0, 525186.0 ], [ 106660.0, 525411.0 ], [ 106942.0, 525591.0 ], [ 107314.0, 525715.0 ], [ 107370.0, 525749.0 ], [ 107381.0, 525805.0 ], [ 107370.0, 525918.0 ], [ 107308.0, 525985.0 ], [ 107122.0, 526070.0 ], [ 106767.0, 526126.0 ], [ 106328.0, 526222.0 ], [ 106000.0, 526230.0 ], [ 105786.0, 526494.0 ], [ 105687.0, 526613.0 ], [ 105487.0, 526525.0 ] ] } },
{ "type": "Feature", "properties": { "value": -25.0 }, "geometry": { "type": "LineString", "coordinates": [ [ 108546.0, 525193.0 ], [ 108298.0, 524996.0 ], [ 108326.0, 524641.0 ], [ 108439.0, 524292.0 ], [ 108562.0, 524281.0 ], [ 108703.0, 524343.0 ], [ 108878.0, 524501.0 ], [ 108900.0, 524895.0 ], [ 108760.0, 525137.0 ], [ 108546.0, 525193.0 ] ] } }
]
}
