{
"type": "FeatureCollection",
"name": "S12",
"crs": { "type": "name", "properties": { "name": "urn:ogc:def:crs:EPSG::28992" } },
"features": [
{ "type": "Feature", "properties": { "layer": "S12" }, "geometry": { "type": "Polygon", "coordinates": [ [ [ 101461.589117, 496769.008444999984931 ], [ 99627.793365999998059, 496778.002135000017006 ], [ 99626.814398999995319, 496778.070530999975745 ], [ 99625.846850000001723, 496778.234554000024218 ], [ 99624.900037, 496778.492622 ], [ 98696.489765999998781, 497041.32019 ], [ 98695.553065999993123, 497041.612847000011243 ], [ 98694.649562000005972, 497041.995906999974977 ], [ 98693.787956, 497042.465680999972392 ], [ 98692.976542999997037, 497043.017646000022069 ], [ 98692.223140999994939, 497043.646484999975655 ], [ 98691.535002999997232, 497044.346143 ], [ 98690.918757000006735, 497045.109881000011228 ], [ 98690.380336999995052, 497045.930344 ], [ 98689.924929999993765, 497046.799630000023171 ], [ 98689.556920999995782, 497047.709368999989238 ], [ 98689.279853999993065, 497048.65079699998023 ], [ 98689.096397000001161, 497049.614850000012666 ], [ 98689.008317, 497050.592243 ], [ 98702.004579999993439, 499080.302604999975301 ], [ 98782.003387999997358, 501030.260267 ], [ 98782.077034999994794, 501031.238852999988012 ], [ 102900.084471, 531662.297030000016093 ], [ 102900.252932, 531663.234874999965541 ], [ 102900.50989, 531664.152429 ], [ 102900.853012, 531665.041362000047229 ], [ 102901.279182, 531665.893600999959745 ], [ 102901.784531, 531666.70140999997966 ], [ 102902.364472, 531667.457454000017606 ], [ 102903.013737, 531668.154867999954149 ], [ 102903.726434, 531668.787321000010706 ], [ 102904.49609, 531669.34907 ], [ 102905.315718, 531669.835015999968164 ], [ 102906.177876, 531670.240744999959134 ], [ 102907.074737, 531670.56257499998901 ], [ 102907.998157, 531670.797583000035957 ], [ 102908.939752, 531670.943635000032373 ], [ 102909.890974, 531670.999406000017188 ], [ 113548.890974, 531786.999406000017188 ], [ 113549.843747, 531786.964340999955311 ], [ 113550.788851, 531786.838699999963865 ], [ 113551.717693, 531786.623624 ], [ 113552.621832, 531786.321069000056013 ], [ 113553.493048, 531785.933785 ], [ 113554.323422, 531785.465291999978945 ], [ 113555.105406, 531784.919849999947473 ], [ 113555.831891, 531784.302415000041947 ], [ 113556.496274, 531783.618601000052877 ], [ 113557.092515, 531782.874623000039719 ], [ 113557.615195, 531782.07724400004372 ], [ 113558.059562, 531781.233712999965064 ], [ 113558.421577, 531780.351697999984026 ], [ 113558.69795, 531779.43921500002034 ], [ 113558.886167, 531778.504560000030324 ], [ 113558.984519, 531777.55622799997218 ], [ 113558.99211, 531776.602839999948628 ], [ 113237.99211, 523700.60284 ], [ 113237.914362, 523699.694082 ], [ 113237.905067, 523699.625354000017978 ], [ 109063.873381, 497478.41369700001087 ], [ 109063.670353, 497477.453575 ], [ 109063.374194, 497476.517975999973714 ], [ 109062.987757, 497475.615912 ], [ 109062.514762, 497474.756067999987863 ], [ 109061.959766, 497473.946726 ], [ 109061.328113, 497473.195681000011973 ], [ 109060.625886, 497472.510164999985136 ], [ 109059.859849, 497471.89678000001004 ], [ 109059.037377, 497471.361434000020381 ], [ 109058.166393, 497470.909280999971088 ], [ 109057.255285, 497470.544677999976557 ], [ 106969.715915, 496803.375874000019394 ], [ 106968.759507, 496803.156009999976959 ], [ 106967.786155, 496803.030949999985751 ], [ 106966.805232, 496803.001897 ], [ 105614.118511, 496794.000702 ], [ 102690.195301, 496776.001907000027131 ], [ 101842.773814, 496771.002557999978308 ], [ 101461.589117, 496769.008444999984931 ] ] ] } }
]
}
