{
"type": "FeatureCollection",
"name": "S31",
"crs": { "type": "name", "properties": { "name": "urn:ogc:def:crs:EPSG::28992" } },
"features": [
{ "type": "Feature", "properties": { "layer": "S31" }, "geometry": { "type": "Polygon", "coordinates": [ [ [ 100614.702536, 496203.004425 ], [ 100613.724231, 496203.081713000021409 ], [ 100612.758212, 496203.254520000016782 ], [ 100611.813783, 496203.521179999981541 ], [ 100610.900039, 496203.879127 ], [ 98243.97261399999843, 497344.846849999972619 ], [ 98243.094840999998269, 497345.285677 ], [ 98242.264307999997982, 497345.808429000026081 ], [ 98241.489012000005459, 497346.410069999983534 ], [ 98240.776421000002301, 497347.084806 ], [ 98240.133396999997785, 497347.826139000011608 ], [ 98239.566133, 497348.626930000027642 ], [ 98239.080090999996173, 497349.47946599998977 ], [ 98238.679952999998932, 497350.375537000014447 ], [ 98238.369571999995969, 497351.306514 ], [ 98238.151937999995425, 497352.263431 ], [ 98238.02914499999315, 497353.237071999988984 ], [ 98238.002378000004683, 497354.218061 ], [ 98255.016690999997081, 498185.57752300001448 ], [ 98255.121369999993476, 498186.553277000028174 ], [ 98255.321186000001035, 498187.514073 ], [ 101743.359083, 510329.655695999972522 ], [ 102768.431194, 513696.904816000023857 ], [ 102768.779986, 513697.871866 ], [ 102769.226219, 513698.797995999979321 ], [ 102769.765177, 513699.673419 ], [ 102770.391163, 513700.488882999983616 ], [ 102771.097563, 513701.235770000028424 ], [ 102771.876911, 513701.906185999978334 ], [ 103006.876911, 513883.906185999978334 ], [ 103007.650088, 513884.448577 ], [ 103008.470986, 513884.915606 ], [ 103009.332283, 513885.303109999978915 ], [ 103010.226295, 513885.607629999984056 ], [ 103011.145048, 513885.826452 ], [ 103012.080347, 513885.957622000016272 ], [ 109244.186169, 514633.966828999982681 ], [ 109245.167007, 514633.998604999971576 ], [ 109246.146238, 514633.93409 ], [ 109247.11443, 514633.773903 ], [ 109248.062258, 514633.519588999974076 ], [ 109248.980595, 514633.173596 ], [ 109249.860597, 514632.739255999971647 ], [ 109250.693789, 514632.220752 ], [ 109251.472147, 514631.623077999975067 ], [ 109252.188174, 514630.951989999972284 ], [ 109252.834975, 514630.21395 ], [ 109253.406321, 514629.416066 ], [ 109253.896709, 514628.566021999984514 ], [ 109254.301418, 514627.672006 ], [ 109254.616548, 514626.742626000021119 ], [ 109254.839066, 514625.786833000020124 ], [ 109254.966829, 514624.813831 ], [ 109254.998605, 514623.832992999989074 ], [ 109227.999913, 499222.041598999989219 ], [ 109227.955839, 499221.061235999979544 ], [ 109227.815884, 499220.089914000011049 ], [ 109227.581396, 499219.136986 ], [ 109227.254635, 499218.211632 ], [ 109226.838746, 499217.322761000017636 ], [ 107884.048318, 496370.742307999986224 ], [ 107883.587421, 496369.8759190000128 ], [ 107883.043822, 496369.058879000018351 ], [ 107882.422758, 496368.299055000010412 ], [ 107881.730207, 496367.603764 ], [ 107880.972842, 496366.979702999989968 ], [ 107880.157954, 496366.432882 ], [ 107879.293393, 496365.968567 ], [ 107878.387484, 496365.591230000020005 ], [ 107877.448951, 496365.304504 ], [ 107876.486834, 496365.111152000026777 ], [ 107875.510398, 496365.013034 ], [ 100615.683706, 496203.0234 ], [ 100614.702536, 496203.004425 ] ] ] } }
]
}
