{
"type": "FeatureCollection",
"name": "DS21A",
"crs": { "type": "name", "properties": { "name": "urn:ogc:def:crs:EPSG::28992" } },
"xy_coordinate_resolution": 0.1,
"features": [
{ "type": "Feature", "properties": { "id": null, "value": 2.0 }, "geometry": { "type": "LineString", "coordinates": [ [ 105164.0, 529968.0 ], [ 106352.0, 529968.0 ], [ 108664.0, 529978.0 ], [ 109146.0, 529976.0 ], [ 110752.0, 529984.0 ], [ 110553.0, 529542.0 ], [ 110352.0, 529000.0 ], [ 110155.0, 528575.0 ], [ 109969.0, 528070.0 ], [ 109782.0, 527609.0 ], [ 109625.0, 527053.0 ], [ 109379.0, 525828.0 ], [ 109244.0, 525147.0 ], [ 109139.0, 524675.0 ], [ 108915.0, 524353.0 ], [ 108678.0, 524207.0 ], [ 108486.0, 524168.0 ], [ 108205.0, 524234.0 ], [ 107973.0, 524344.0 ], [ 107637.0, 524372.0 ], [ 107425.0, 524342.0 ], [ 107187.0, 524352.0 ], [ 106904.0, 524337.0 ], [ 106548.0, 524246.0 ], [ 106234.0, 524181.0 ], [ 105913.0, 524194.0 ], [ 105693.0, 524229.0 ], [ 105484.0, 524243.0 ], [ 105240.0, 524183.0 ], [ 105112.0, 523998.0 ], [ 105170.0, 523791.0 ], [ 105351.0, 523646.0 ], [ 105396.0, 523502.0 ], [ 105232.0, 523325.0 ], [ 104904.0, 523209.0 ], [ 104622.0, 522946.0 ], [ 104380.0, 522639.0 ], [ 104070.0, 522357.0 ], [ 104144.0, 522997.0 ], [ 104256.0, 524004.0 ], [ 104292.0, 524520.0 ], [ 104349.0, 525146.0 ], [ 104388.0, 525661.0 ], [ 104416.0, 526142.0 ], [ 104482.0, 526611.0 ], [ 104577.0, 527018.0 ], [ 104698.0, 527688.0 ], [ 104803.0, 528175.0 ], [ 105115.0, 529673.0 ], [ 105164.0, 529968.0 ] ] } }
]
}
