{
"type": "FeatureCollection",
"name": "S13",
"crs": { "type": "name", "properties": { "name": "urn:ogc:def:crs:EPSG::28992" } },
"features": [
{ "type": "Feature", "properties": { "layer": "S13" }, "geometry": { "type": "Polygon", "coordinates": [ [ [ 107657.010785, 496598.000005999987479 ], [ 103809.039215, 496677.000077 ], [ 101741.000616, 496723.0 ], [ 101740.020441, 496723.04809200001182 ], [ 101739.049701, 496723.192027000011876 ], [ 99724.29839300000458, 497034.145836999989115 ], [ 99723.92742000000726, 497034.217137 ], [ 99723.340710000004037, 497034.360074000025634 ], [ 99636.340710000004037, 497058.360074000025634 ], [ 99635.371528999996372, 497058.681512999988627 ], [ 99634.440180000005057, 497059.10011 ], [ 99472.440180000005057, 497142.10011 ], [ 99074.890832000004593, 497363.403698 ], [ 99074.0, 497364.0 ], [ 98958.0, 497451.0 ], [ 98957.159931000001961, 497451.705245000019204 ], [ 98956.402153999995789, 497452.498251000011805 ], [ 98955.735786000004737, 497453.369478999986313 ], [ 98955.168843000006746, 497454.308448 ], [ 98904.168843000006746, 497550.308448 ], [ 98903.74437, 497551.214064 ], [ 98903.41248299999279, 497552.157552000018768 ], [ 98903.17650099999446, 497553.129473 ], [ 98903.03878600000462, 497554.120104999979958 ], [ 98903.000715000001946, 497555.119538999977522 ], [ 98903.062667999998666, 497556.117777 ], [ 99154.021473, 499927.65498499997193 ], [ 99154.13372199999867, 499928.629897999984678 ], [ 102410.131486, 519473.616303000017069 ], [ 102410.344023, 519474.600405999983195 ], [ 105154.343268, 529970.597599999979138 ], [ 105154.430597, 529970.902847000048496 ], [ 105154.644377, 529971.531617 ], [ 105154.761205, 529971.826833999948576 ], [ 105155.035586, 529972.431622999953106 ], [ 105155.180787, 529972.713967000017874 ], [ 105155.513127, 529973.288949999958277 ], [ 105155.685304, 529973.555702000041492 ], [ 105156.072402, 529974.095341 ], [ 105156.269895, 529974.343933 ], [ 105156.708023, 529974.843031 ], [ 105156.928932, 529975.071068000048399 ], [ 105157.41387, 529975.524819000042044 ], [ 105157.656067, 529975.730104999965988 ], [ 105158.183145, 529976.134137999964878 ], [ 105158.444298, 529976.314695999957621 ], [ 105159.00844, 529976.665121000027284 ], [ 105159.286033, 529976.819213 ], [ 105159.881806, 529977.112654999946244 ], [ 105160.173166, 529977.238795000012033 ], [ 105160.794833, 529977.472428999957629 ], [ 105161.097153, 529977.569402999943122 ], [ 105161.738727, 529977.740977999987081 ], [ 105162.049097, 529977.807853 ], [ 105162.704398, 529977.91571600001771 ], [ 105163.019829, 529977.951847000047565 ], [ 105163.682547, 529977.99496000004001 ], [ 105164.0, 529978.0 ], [ 110751.950187, 529993.999875999987125 ], [ 112123.885583, 529994.999345000018366 ], [ 112124.88603, 529994.960669999942183 ], [ 112125.877596, 529994.822150000021793 ], [ 112126.850342, 529994.585174 ], [ 112127.794515, 529994.252116000046954 ], [ 112128.700653, 529993.826315999962389 ], [ 112129.559672, 529993.312043000012636 ], [ 115623.693939, 527495.220648000016809 ], [ 115624.462542, 527494.631222 ], [ 115625.170515, 527493.970202 ], [ 115625.811216, 527493.243788999971002 ], [ 115626.378635, 527492.458798 ], [ 115626.867447, 527491.622594999964349 ], [ 115627.273067, 527490.743022999959067 ], [ 115627.59169, 527489.828335999976844 ], [ 115627.820326, 527488.887114000041038 ], [ 115627.95683, 527487.928186999983154 ], [ 115627.999922, 527486.96055299998261 ], [ 115635.991588, 516696.589905 ], [ 115635.903279, 516695.612533 ], [ 115635.719596, 516694.648523000010755 ], [ 115635.442309, 516693.707158999983221 ], [ 109313.595281, 497903.183872000023257 ], [ 109313.273049, 497902.256930999981705 ], [ 109312.861511, 497901.366037000028882 ], [ 109312.364633, 497900.519770000013523 ], [ 109311.787199, 497899.726282000017818 ], [ 109311.134769, 497898.993213 ], [ 109310.413628, 497898.32762300001923 ], [ 107663.352266, 496600.276742000016384 ], [ 107662.564666, 496599.6913 ], [ 107661.723476, 496599.185875999974087 ], [ 107660.836796, 496598.765337000018917 ], [ 107659.913165, 496598.43373300001258 ], [ 107658.961479, 496598.194257 ], [ 107657.990903, 496598.049216000013985 ], [ 107657.010785, 496598.000005999987479 ] ] ] } }
]
}
