{
"type": "FeatureCollection",
"name": "S21A",
"crs": { "type": "name", "properties": { "name": "urn:ogc:def:crs:EPSG::28992" } },
"features": [
{ "type": "Feature", "properties": { "layer": "S21A" }, "geometry": { "type": "Polygon", "coordinates": [ [ [ 104069.83061755275412, 522347.001434623554815 ], [ 104069.527555169479456, 522347.011166440381203 ], [ 104068.851402389933355, 522347.066182831826154 ], [ 104068.550753219722537, 522347.105573095439468 ], [ 104067.883248849990196, 522347.226599129848182 ], [ 104067.587908308705664, 522347.295268490444869 ], [ 104066.935480780754006, 522347.481138620874844 ], [ 104066.648293159261812, 522347.578425755025819 ], [ 104066.017225706847967, 522347.827349950559437 ], [ 104065.740956778914551, 522347.952317929943092 ], [ 104065.137326926575042, 522348.261898914468475 ], [ 104064.874637313012499, 522348.413344229164068 ], [ 104064.304258346208371, 522348.780600568570662 ], [ 104064.05767789161473, 522348.957064717425965 ], [ 104063.52604287158465, 522349.378459532395937 ], [ 104063.297946280508768, 522349.578243069117889 ], [ 104062.81017514312407, 522350.049718097259756 ], [ 104062.602759110435727, 522350.270896997244563 ], [ 104062.163549358403543, 522350.787911676277872 ], [ 104061.978811413879157, 522351.028355865797494 ], [ 104061.59239287719538, 522351.585931061708834 ], [ 104061.432112148235319, 522351.843324931745883 ], [ 104061.102206248644507, 522352.436090890667401 ], [ 104060.967926326280576, 522352.707955597550608 ], [ 104060.697710237946012, 522353.330203659192193 ], [ 104060.59072431124514, 522353.613920997246169 ], [ 104060.382800362815033, 522354.259658572613262 ], [ 104060.304138764724485, 522354.552496188727673 ], [ 104060.160509377485141, 522355.215504472027533 ], [ 104060.110929662187118, 522355.514642179885413 ], [ 104060.032978065646603, 522356.188536038855091 ], [ 104060.012957712926436, 522356.491092978802044 ], [ 104060.001434623583918, 522357.169382447260432 ], [ 104060.011166440366651, 522357.472444830520544 ], [ 104060.066182831855258, 522358.148597610066645 ], [ 104406.016900278948015, 526142.581136782071553 ], [ 104406.097570738915238, 526143.393518829951063 ], [ 104472.097570738915238, 526612.393518829951063 ], [ 104472.261764420982217, 526613.273052530712448 ], [ 104688.224627355215489, 527690.107626545592211 ], [ 105154.192147195964935, 529969.950903220218606 ], [ 105154.343268014679779, 529970.597600308712572 ], [ 105154.430596642676392, 529970.902846772572957 ], [ 105154.644377172618988, 529971.531617407337762 ], [ 105154.761204674883629, 529971.826834323699586 ], [ 105155.035586092693848, 529972.431623099837452 ], [ 105155.180787356512155, 529972.713967368239537 ], [ 105155.51312721913564, 529973.288949839188717 ], [ 105155.685303876976832, 529973.555702330195345 ], [ 105156.072401569865178, 529974.095341100473888 ], [ 105156.269895466379239, 529974.343932841671631 ], [ 105156.708023027138552, 529974.843030894757248 ], [ 105156.928932188136969, 529975.071067811921239 ], [ 105157.413870208853041, 529975.52481856092345 ], [ 105157.656067158357473, 529975.730104533606209 ], [ 105158.183145420814981, 529976.134138110792264 ], [ 105158.444297669804655, 529976.314696123008616 ], [ 105159.008440122182947, 529976.665121464058757 ], [ 105159.286032631745911, 529976.819212643429637 ], [ 105159.881806273828261, 529977.112654960714281 ], [ 105160.17316567634407, 529977.238795325160027 ], [ 105160.79483288229676, 529977.472428608685732 ], [ 105161.097153227456147, 529977.56940335733816 ], [ 105161.738727002244559, 529977.740977591020055 ], [ 105162.049096779839601, 529977.807852804078721 ], [ 105162.704398417277844, 529977.915715634240769 ], [ 105163.019828596705338, 529977.951847266755067 ], [ 105163.682547183823772, 529977.994959915406071 ], [ 105164.0, 529978.0 ], [ 110751.950187417518464, 529993.999875934561715 ], [ 110752.303383175938507, 529993.995396872982383 ], [ 110752.930586521470104, 529993.956606285530142 ], [ 110753.281642520974856, 529993.917529553640634 ], [ 110753.902023568516597, 529993.817449075286277 ], [ 110754.247558947914513, 529993.744151003309526 ], [ 110754.855143088832847, 529993.583744463510811 ], [ 110755.191830153547926, 529993.47693095204886 ], [ 110755.780766020441661, 529993.257743153604679 ], [ 110756.105362289963523, 529993.118442875216715 ], [ 110756.669978108489886, 529992.842584716388956 ], [ 110756.979357543314109, 529992.672139208763838 ], [ 110757.514215754476027, 529992.342267354484648 ], [ 110757.805398861528374, 529992.142318101017736 ], [ 110758.305348488385789, 529991.761609397595748 ], [ 110758.575531015143497, 529991.534082019003108 ], [ 110759.035757269492024, 529991.106202899245545 ], [ 110759.282337210548576, 529990.853288608486764 ], [ 110759.698407861942542, 529990.38235978235025 ], [ 110759.91901051766763, 529990.106494282372296 ], [ 110760.286918578320183, 529989.597051051794551 ], [ 110760.479419424547814, 529989.300891078193672 ], [ 110760.795621738696354, 529988.757839659927413 ], [ 110760.958166887037805, 529988.444237395073287 ], [ 110761.219618253555382, 529987.872807671315968 ], [ 110761.350642305376823, 529987.544783276505768 ], [ 110761.554824804668897, 529986.950478427694179 ], [ 110761.653065926730051, 529986.611190957017243 ], [ 110761.798013169711339, 529985.999734463868663 ], [ 110761.862525246309815, 529985.65245144139044 ], [ 110761.946841311801109, 529985.029731963993981 ], [ 110761.97700305635226, 529984.677797914948314 ], [ 110761.999875934561715, 529984.04981258243788 ], [ 110761.995396872982383, 529983.696616824017838 ], [ 110761.956606285573798, 529983.06941347848624 ], [ 110761.917529553698841, 529982.718357479083352 ], [ 110761.817449075228069, 529982.097976431483403 ], [ 110761.744151003324077, 529981.752441052114591 ], [ 110761.583744463525363, 529981.144856911152601 ], [ 109148.513285700493725, 524671.918215584941208 ], [ 109148.501536357915029, 524671.882179152220488 ], [ 109148.165408934117295, 524671.00059015979059 ], [ 109148.150183979756548, 524670.965878889197484 ], [ 109147.729264269393752, 524670.121481237583794 ], [ 109147.710710327868583, 524670.088429417810403 ], [ 109147.209052017860813, 524669.289355118060485 ], [ 108923.209052017860813, 524347.289355118060485 ], [ 108923.103942776244367, 524347.141151010757312 ], [ 108922.609782107858337, 524346.512225630343892 ], [ 108922.490652453197981, 524346.375037673627958 ], [ 108921.937225836227299, 524345.797576956567355 ], [ 108921.805223052215297, 524345.672726345364936 ], [ 108921.197860287531512, 524345.152291553793475 ], [ 108921.054255633120192, 524345.040980667923577 ], [ 108920.398805956167052, 524344.582583873416297 ], [ 108920.244982422693283, 524344.485884697409347 ], [ 108683.244982422693283, 524198.485884697409347 ], [ 108682.749637735600118, 524198.199946512642782 ], [ 108682.385197164330748, 524198.012784311606083 ], [ 108681.864210854109842, 524197.776775267033372 ], [ 104073.669796340793255, 522347.69771023793146 ], [ 104073.386079002768383, 522347.59072431124514 ], [ 104072.740341427357635, 522347.382800362829585 ], [ 104072.447503811272327, 522347.304138764739037 ], [ 104071.784495527957915, 522347.160509377485141 ], [ 104071.485357820129138, 522347.110929662187118 ], [ 104070.811463961115805, 522347.032978065661155 ], [ 104070.508907021212508, 522347.012957712926436 ], [ 104069.83061755275412, 522347.001434623554815 ] ] ] } }
]
}
