{
"type": "FeatureCollection",
"name": "S22",
"crs": { "type": "name", "properties": { "name": "urn:ogc:def:crs:EPSG::28992" } },
"features": [
{ "type": "Feature", "properties": { "layer": "S22" }, "geometry": { "type": "Polygon", "coordinates": [ [ [ 105747.272844, 496353.003723 ], [ 101950.105242, 496385.000554000027478 ], [ 99284.6452, 496408.006295999977738 ], [ 99283.667354000004707, 496408.089195 ], [ 99282.7023429999972, 496408.267539999971632 ], [ 97892.097670999995898, 496760.430440000025555 ], [ 97891.173666000002413, 496760.760997999983374 ], [ 97890.286510000005364, 496761.180532000027597 ], [ 97889.444747999994433, 496761.685003000020515 ], [ 97888.656485, 496762.269551999983378 ], [ 97887.929315000001225, 496762.928550000011455 ], [ 97887.270239000004949, 496763.655649000022095 ], [ 97886.685605000006035, 496764.443848000024445 ], [ 97886.181041999996523, 496765.285555 ], [ 97885.761412000007113, 496766.172666000027675 ], [ 97885.430754, 496767.096635000023525 ], [ 97885.192253000001074, 496768.048566000012215 ], [ 97885.048206000006758, 496769.019290000025649 ], [ 97885.0, 496769.999459000013303 ], [ 97904.002149000007194, 499317.207292 ], [ 97917.006481000003987, 501052.359963 ], [ 97927.00022600000375, 502385.067172000010032 ], [ 97944.000237, 504649.931149000010919 ], [ 97956.000530000004801, 506229.102957999974024 ], [ 97956.058772000003955, 506230.082582 ], [ 97956.212753, 506231.051778999972157 ], [ 99627.299201999994693, 513795.427861 ], [ 99627.583885999993072, 513796.367015000025276 ], [ 99627.959252, 513797.273743 ], [ 99628.4216860000015, 513798.139312000013888 ], [ 99628.966732999993837, 513798.955385999986902 ], [ 99629.589145999998436, 513799.714106999977957 ], [ 99630.282928999993601, 513800.408168 ], [ 99631.041400999994949, 513801.030884 ], [ 99631.857256999996025, 513801.57625799998641 ], [ 99632.722641, 513802.039037999988068 ], [ 104239.955914, 515988.145784 ], [ 104240.871831, 515988.498135 ], [ 104241.817874, 515988.759013 ], [ 104242.784932, 515988.925906000018585 ], [ 104243.763692, 515988.997207999986131 ], [ 104244.744728, 515988.972230000013951 ], [ 104245.718591, 515988.851214999973308 ], [ 104246.675904, 515988.635328 ], [ 104247.607446, 515988.326646999979857 ], [ 104248.504246, 515987.928145000012591 ], [ 109595.424242, 513327.968058999977075 ], [ 109596.281962, 513327.491224 ], [ 109597.088813, 513326.932612999982666 ], [ 109597.837026, 513326.297606999985874 ], [ 109598.519395, 513325.592322000011336 ], [ 109599.129347, 513324.823548000014853 ], [ 109599.66101, 513323.998690999986138 ], [ 109600.109262, 513323.125693999987561 ], [ 109600.469787, 513322.212963 ], [ 109600.739113, 513321.269290999975055 ], [ 109600.914646, 513320.303763 ], [ 109600.994695, 513319.32568 ], [ 109641.988157, 510835.48653 ], [ 109787.995221, 496888.309129 ], [ 109787.977391, 496887.327937000023667 ], [ 109787.863474, 496886.353217999974731 ], [ 109787.654565, 496885.39435900002718 ], [ 109787.352678, 496884.460593 ], [ 109786.96072, 496883.560913000022992 ], [ 109786.482465, 496882.703984000021592 ], [ 109785.92252, 496881.898059000028297 ], [ 109785.286276, 496881.150899 ], [ 109784.579861, 496880.469699 ], [ 109783.810079, 496879.861020000011194 ], [ 109782.984342, 496879.330725 ], [ 109782.110603, 496878.883918999985326 ], [ 109781.197277, 496878.524905 ], [ 109780.25316, 496878.257143000024371 ], [ 109779.287343, 496878.083209 ], [ 105748.251337, 496353.078601000015624 ], [ 105747.272844, 496353.003723 ] ] ] } }
]
}
