{
"type": "FeatureCollection",
"name": "S32",
"crs": { "type": "name", "properties": { "name": "urn:ogc:def:crs:EPSG::28992" } },
"features": [
{ "type": "Feature", "properties": { "layer": "S32" }, "geometry": { "type": "Polygon", "coordinates": [ [ [ 100634.550675, 496507.010100000014063 ], [ 100633.573657, 496507.10224500001641 ], [ 100632.610375, 496507.289712 ], [ 100631.670107, 496507.570694 ], [ 100630.761908, 496507.942485 ], [ 100629.894524, 496508.401505000016186 ], [ 100629.076308, 496508.943333 ], [ 97955.173125999994227, 498606.873036 ], [ 97954.404601999995066, 498607.483304 ], [ 97953.69959600000584, 498608.165961000020616 ], [ 97953.064895999996224, 498608.914433000027202 ], [ 97952.506615999998758, 498609.72151300002588 ], [ 97952.030132, 498610.579427000018768 ], [ 97951.640031999995699, 498611.479914999974426 ], [ 97951.340074000007007, 498612.414302000019234 ], [ 97951.133147, 498613.373590999981388 ], [ 97951.02124200000253, 498614.348544 ], [ 97951.005439, 498615.329770000011194 ], [ 98065.058596999995643, 500078.08097299997462 ], [ 98065.212421000003815, 500079.050196000025608 ], [ 98065.460504999995464, 500079.999674000020605 ], [ 101900.413007, 513299.844217 ], [ 101900.737953, 513300.770209999987856 ], [ 101901.152098, 513301.659894999989774 ], [ 101901.651452, 513302.504703000013251 ], [ 101902.231208, 513303.296496999973897 ], [ 103944.776534, 515993.689867999986745 ], [ 103945.373836, 515994.468510999984574 ], [ 103946.044583, 515995.184858000022359 ], [ 103946.782315, 515995.832011000020429 ], [ 103947.579926, 515996.403737000015099 ], [ 103948.429735, 515996.894531 ], [ 103949.323559, 515997.299666 ], [ 103950.252789, 515997.615239 ], [ 103951.208476, 515997.838212999980897 ], [ 103952.181416, 515997.966439999989234 ], [ 103953.162239, 515997.998684 ], [ 105428.862849, 516018.999059 ], [ 105919.073431, 516018.999729999981355 ], [ 107556.202363, 516016.997952 ], [ 107557.18136, 516016.929974000027869 ], [ 109883.669114, 515705.859719 ], [ 109884.627498, 515705.648640000028536 ], [ 109885.560578, 515705.344639000017196 ], [ 109886.459368, 515704.950644999975339 ], [ 109887.315211, 515704.470450000022538 ], [ 109888.119866, 515703.908681 ], [ 109888.865584, 515703.270747 ], [ 109889.545182, 515702.562791 ], [ 109890.152116, 515701.791632 ], [ 109890.68054, 515700.964696999988519 ], [ 109891.125367, 515700.089948999986518 ], [ 109891.482311, 515699.175812 ], [ 109891.747935, 515698.231091000023298 ], [ 109891.919681, 515697.264883 ], [ 109891.995895, 515696.286494 ], [ 109880.996827, 511741.251883000019006 ], [ 109855.99125, 503208.581773000012618 ], [ 109855.902147, 503207.604472999984864 ], [ 109855.717679, 503206.640613000025041 ], [ 109855.439626, 503205.699474999972153 ], [ 109855.070663, 503204.790122999984305 ], [ 109854.614346, 503203.921313999977428 ], [ 109854.075067, 503203.101416 ], [ 105024.973334, 496572.964608 ], [ 105024.343368, 496572.212147000012919 ], [ 105023.642682, 496571.525057 ], [ 105022.878023, 496570.909953999973368 ], [ 105022.056755, 496570.372763000021223 ], [ 105021.186788, 496569.918656 ], [ 105020.276501, 496569.552008000027854 ], [ 105019.334658, 496569.27635 ], [ 105018.370332, 496569.094334999972489 ], [ 105017.392808, 496569.007717999978922 ], [ 102059.574883, 496527.016538000025321 ], [ 100635.53202, 496507.014161999977659 ], [ 100634.550675, 496507.010100000014063 ] ] ] } }
]
}
