{
"type": "FeatureCollection",
"name": "S11",
"crs": { "type": "name", "properties": { "name": "urn:ogc:def:crs:EPSG::28992" } },
"features": [
{ "type": "Feature", "properties": { "layer": "S11" }, "geometry": { "type": "Polygon", "coordinates": [ [ [ 106768.176715, 496691.001562000019476 ], [ 103753.518002, 496694.011623000027612 ], [ 100097.184648, 496699.001705 ], [ 100096.203755, 496699.031750999973156 ], [ 100095.23053, 496699.157796000014059 ], [ 100094.274345, 496699.378627999976743 ], [ 100093.344411, 496699.692118 ], [ 100092.449681, 496700.095248 ], [ 100091.598774, 496700.584136000019498 ], [ 98559.463338999994448, 497618.672612000023946 ], [ 98558.673773000002257, 497619.255399000016041 ], [ 98557.945131999993464, 497619.91277 ], [ 98557.284432999993442, 497620.638395000016317 ], [ 98556.698038999995333, 497621.42528600001242 ], [ 98556.191598000004888, 497622.265864000015426 ], [ 98555.769986, 497623.152034000027925 ], [ 98555.437263999992865, 497624.075262999976985 ], [ 98555.196637, 497625.026658000017051 ], [ 98555.050422, 497625.997058 ], [ 98555.00002599999425, 497626.977116999973077 ], [ 98555.045935999994981, 497627.957395999983419 ], [ 98690.142504999996163, 498668.682200999988709 ], [ 104124.245135, 523263.200591999979224 ], [ 104124.356068, 523263.644726000027731 ], [ 104124.507803, 523264.146140000026207 ], [ 104124.661735, 523264.577262 ], [ 104124.861886, 523265.061387999972794 ], [ 104125.057334, 523265.475346 ], [ 104125.303974, 523265.937524 ], [ 104125.539056, 523266.330330999975558 ], [ 104125.82981, 523266.766108000010718 ], [ 104126.102261, 523267.133981 ], [ 104126.434329, 523267.539161 ], [ 104126.741526, 523267.878558000025805 ], [ 104127.11171, 523268.249238000018522 ], [ 104127.450695, 523268.55689100001473 ], [ 104127.855428, 523268.889502 ], [ 104128.222936, 523269.162446999980602 ], [ 106122.239846, 524704.174389000050724 ], [ 106122.876586, 524704.587818 ], [ 106298.876586, 524809.587818 ], [ 106298.975424, 524809.646017999970354 ], [ 106299.74301, 524810.048648 ], [ 106299.847077, 524810.096879999968223 ], [ 106300.650431, 524810.422334 ], [ 106300.758724, 524810.460134000051767 ], [ 106301.59011, 524810.705278999987058 ], [ 106301.701587, 524810.732281 ], [ 106302.552998, 524810.894755000015721 ], [ 106302.666585, 524810.910701000015251 ], [ 106303.529821, 524810.988939999951981 ], [ 106303.644424, 524810.993676000041887 ], [ 106304.511173, 524810.986927 ], [ 106304.625688, 524810.980407000053674 ], [ 106305.487601, 524810.888733000028878 ], [ 106305.600926, 524810.8710199999623 ], [ 106306.449704, 524810.695305999950506 ], [ 106306.560746, 524810.66657 ], [ 106307.388214, 524810.408506999956444 ], [ 106307.495905, 524810.369026000029407 ], [ 106441.495905, 524760.369026000029407 ], [ 106441.836496, 524760.234787 ], [ 106442.397397, 524759.981252999976277 ], [ 106442.72319, 524759.814277000026777 ], [ 106443.256539, 524759.506984999985434 ], [ 106443.564397, 524759.308880000025965 ], [ 106444.065057, 524758.950791000039317 ], [ 106444.352015, 524758.723464000038803 ], [ 106444.815166, 524758.318026000051759 ], [ 106445.07846, 524758.063667000038549 ], [ 106445.499641, 524757.614784999983385 ], [ 106445.736736, 524757.335843999986537 ], [ 108517.731699, 522170.341989999986254 ], [ 108518.251228, 522169.649534000025596 ], [ 108518.316092, 522169.553612000017893 ], [ 108518.765247, 522168.813567999983206 ], [ 108518.820397, 522168.711751000024378 ], [ 108519.194853, 522167.931244999985211 ], [ 108519.239757, 522167.824512000021059 ], [ 108519.535906, 522167.011062 ], [ 108519.570133, 522166.900442000012845 ], [ 108519.785124, 522166.061881 ], [ 108519.808343, 522165.948438 ], [ 108519.940105, 522165.092842000012752 ], [ 109541.882451, 512976.52877700002864 ], [ 109541.984711, 512975.552765999978874 ], [ 109541.990812, 512974.571431000018492 ], [ 109510.982936, 511126.416061000025366 ], [ 109343.996915, 501174.751629 ], [ 109220.99779, 496803.78975499997614 ], [ 109220.92904, 496802.810813000018243 ], [ 109220.764668, 496801.843323 ], [ 109220.506257, 496800.896603 ], [ 109220.156296, 496799.979770999983884 ], [ 109219.718155, 496799.101655 ], [ 109219.196053, 496798.270713999983855 ], [ 109218.595018, 496797.494948 ], [ 109217.920839, 496796.78183 ], [ 109217.180009, 496796.138226000010036 ], [ 109216.379662, 496795.570336 ], [ 109215.527506, 496795.083628 ], [ 109214.631748, 496794.68279 ], [ 109213.701014, 496794.371680999989621 ], [ 109212.744267, 496794.153298 ], [ 109211.770723, 496794.029745 ], [ 106768.176715, 496691.001562000019476 ] ] ] } }
]
}
